IRIDIUM 112             
1 41925U 17003J   25158.68590686  .00000191  00000+0  61082-4 0  9992
2 41925  86.3973 244.7378 0002162  97.1785 262.9657 14.34217646439597
IRIDIUM 111             
1 41926U 17003K   25158.67322242 -.00000042  00000+0 -22224-4 0  9995
2 41926  86.3977 244.8055 0002330  94.3146 265.8316 14.34216960439572
IRIDIUM 113             
1 42803U 17039A   25158.58341671  .00000168  00000+0  52876-4 0  9999
2 42803  86.3964 118.7721 0002203  91.7518 268.3930 14.34218051417495
IRIDIUM 123             
1 42804U 17039B   25158.90396931 -.00000032  00000+0 -18356-4 0  9992
2 42804  86.3982 150.0950 0002564  87.0490 273.0999 14.34217237416308
IRIDIUM 120             
1 42805U 17039C   25158.92591741  .00000250  00000+0  82041-4 0  9993
2 42805  86.3954 118.4601 0002472  78.0030 282.1443 14.34216901417535
IRIDIUM 115             
1 42806U 17039D   25158.87070775  .00000304  00000+0  84332-4 0  9992
2 42806  86.4491 118.5605 0003068  84.1246 276.0305 14.43278250420276
IRIDIUM 118             
1 42807U 17039E   25158.93568231  .00000048  00000+0  10088-4 0  9991
2 42807  86.3976 150.0813 0002259  90.3850 269.7605 14.34217854416301
IRIDIUM 117             
1 42808U 17039F   25158.95470611  .00000056  00000+0  13057-4 0  9996
2 42808  86.3976 150.0348 0002576  90.6941 269.4549 14.34217359416338
